STARLINK-3718           
1 52132U 22029AW  25355.45296441 -.00000042  00000+0  15475-4 0  9995
2 52132  53.2181  60.3374 0001268  92.5144 267.5993 15.08838746209125
STARLINK-3707           
1 52133U 22029AX  25355.57071983  .00000349  00000+0  40004-4 0  9996
2 52133  53.2180  59.8085 0001287  97.1237 262.9902 15.08844925209149
STARLINK-3721           
1 52134U 22029AY  25355.57440211  .00001494  00000+0  11191-3 0  9997
2 52134  53.2179  59.7928 0001323  90.8809 269.2334 15.08841673209145
STARLINK-3729           
1 52135U 22029AZ  25355.56064492  .00000606  00000+0  56187-4 0  9999
2 52135  53.2192  59.8672 0001355  91.0509 269.0638 15.08836885209147
STARLINK-3720           
1 52136U 22029BA  25355.50080481  .00000212  00000+0  31397-4 0  9999
2 52136  53.2172  60.1235 0001274  91.8608 268.2531 15.08836336209137
STARLINK-3733           
1 52137U 22029BB  25355.48976576  .00000855  00000+0  71817-4 0  9990
2 52137  53.2184  60.1746 0001264  95.4055 264.7081 15.08838716209138
STARLINK-3723           
1 52138U 22029BC  25355.49712154  .00000496  00000+0  49265-4 0  9995
2 52138  53.2163  60.1390 0000992 118.9288 241.1804 15.08837382209137
STARLINK-3730           
1 52139U 22029BD  25355.21284578  .00000540  00000+0  52037-4 0  9991
2 52139  53.2192  71.4160 0001456  86.4840 273.6318 15.08837328208947
STARLINK-3682           
1 52140U 22029BE  25355.61856266  .00000504  00000+0  49737-4 0  9999
2 52140  53.2175  59.5959 0001266  88.0016 272.1121 15.08840305209154
STARLINK-3761           
1 52262U 22041B   25355.48239790  .00000730  00000+0  63975-4 0  9991
2 52262  53.2177 100.1577 0001279  85.6213 274.4925 15.08842248202558
STARLINK-3786           
1 52263U 22041C   25355.55232189  .00000672  00000+0  60299-4 0  9996
2 52263  53.2180  99.8941 0000885  96.9650 263.1443 15.08840784202568
STARLINK-3795           
1 52264U 22041D   25355.67745753  .00001749  00000+0  12803-3 0  9999
2 52264  53.2177  99.3299 0000976  99.3910 260.7192 15.08818399202586
STARLINK-3740           
1 52265U 22041E   25355.67375221  .00001847  00000+0  13405-3 0  9997
2 52265  53.2192  99.3461 0001626  83.6022 276.5156 15.08850077202582
STARLINK-3739           
1 52266U 22041F   25355.67008034  .00001991  00000+0  14319-3 0  9998
2 52266  53.2181  99.3636 0001264  90.2570 269.8567 15.08830993202581
STARLINK-3748           
1 52267U 22041G   25355.53392913  .00001006  00000+0  81293-4 0  9999
2 52267  53.2186  99.9805 0001269  89.1619 270.9519 15.08833484202563
STARLINK-3746           
1 52268U 22041H   25355.58175219  .00000517  00000+0  50551-4 0  9992
2 52268  53.2178  99.6835 0001254  89.4396 270.6740 15.08837164202577
STARLINK-3791           
1 52269U 22041J   25355.53024339  .00001579  00000+0  11725-3 0  9992
2 52269  53.2177  99.9912 0001114  77.4150 282.6966 15.08839291202561
