[{"OBJECT_NAME":"STARLINK-3718","OBJECT_ID":"2022-029AW","EPOCH":"2025-12-21T10:52:16.125024","MEAN_MOTION":15.08838746,"ECCENTRICITY":0.00012686,"INCLINATION":53.2181,"RA_OF_ASC_NODE":60.3374,"ARG_OF_PERICENTER":92.5144,"MEAN_ANOMALY":267.5993,"EPHEMERIS_TYPE":0,"CLASSIFICATION_TYPE":"U","NORAD_CAT_ID":52132,"ELEMENT_SET_NO":999,"REV_AT_EPOCH":20912,"BSTAR":1.5474617e-5,"MEAN_MOTION_DOT":-4.2e-7,"MEAN_MOTION_DDOT":0},{"OBJECT_NAME":"STARLINK-3707","OBJECT_ID":"2022-029AX","EPOCH":"2025-12-21T13:41:50.193312","MEAN_MOTION":15.08844925,"ECCENTRICITY":0.0001287,"INCLINATION":53.218,"RA_OF_ASC_NODE":59.8085,"ARG_OF_PERICENTER":97.1237,"MEAN_ANOMALY":262.9902,"EPHEMERIS_TYPE":0,"CLASSIFICATION_TYPE":"U","NORAD_CAT_ID":52133,"ELEMENT_SET_NO":999,"REV_AT_EPOCH":20914,"BSTAR":4.0004e-5,"MEAN_MOTION_DOT":3.49e-6,"MEAN_MOTION_DDOT":0},{"OBJECT_NAME":"STARLINK-3721","OBJECT_ID":"2022-029AY","EPOCH":"2025-12-21T13:47:08.342304","MEAN_MOTION":15.08841673,"ECCENTRICITY":0.0001323,"INCLINATION":53.2179,"RA_OF_ASC_NODE":59.7928,"ARG_OF_PERICENTER":90.8809,"MEAN_ANOMALY":269.2334,"EPHEMERIS_TYPE":0,"CLASSIFICATION_TYPE":"U","NORAD_CAT_ID":52134,"ELEMENT_SET_NO":999,"REV_AT_EPOCH":20914,"BSTAR":0.00011191,"MEAN_MOTION_DOT":1.494e-5,"MEAN_MOTION_DDOT":0},{"OBJECT_NAME":"STARLINK-3729","OBJECT_ID":"2022-029AZ","EPOCH":"2025-12-21T13:27:19.721088","MEAN_MOTION":15.08836885,"ECCENTRICITY":0.0001355,"INCLINATION":53.2192,"RA_OF_ASC_NODE":59.8672,"ARG_OF_PERICENTER":91.0509,"MEAN_ANOMALY":269.0638,"EPHEMERIS_TYPE":0,"CLASSIFICATION_TYPE":"U","NORAD_CAT_ID":52135,"ELEMENT_SET_NO":999,"REV_AT_EPOCH":20914,"BSTAR":5.6187e-5,"MEAN_MOTION_DOT":6.06e-6,"MEAN_MOTION_DDOT":0},{"OBJECT_NAME":"STARLINK-3720","OBJECT_ID":"2022-029BA","EPOCH":"2025-12-21T12:01:09.535584","MEAN_MOTION":15.08836336,"ECCENTRICITY":0.00012744,"INCLINATION":53.2172,"RA_OF_ASC_NODE":60.1235,"ARG_OF_PERICENTER":91.8608,"MEAN_ANOMALY":268.2531,"EPHEMERIS_TYPE":0,"CLASSIFICATION_TYPE":"U","NORAD_CAT_ID":52136,"ELEMENT_SET_NO":999,"REV_AT_EPOCH":20913,"BSTAR":3.1396506e-5,"MEAN_MOTION_DOT":2.12e-6,"MEAN_MOTION_DDOT":0},{"OBJECT_NAME":"STARLINK-3733","OBJECT_ID":"2022-029BB","EPOCH":"2025-12-21T11:45:15.761664","MEAN_MOTION":15.08838716,"ECCENTRICITY":0.0001264,"INCLINATION":53.2184,"RA_OF_ASC_NODE":60.1746,"ARG_OF_PERICENTER":95.4055,"MEAN_ANOMALY":264.7081,"EPHEMERIS_TYPE":0,"CLASSIFICATION_TYPE":"U","NORAD_CAT_ID":52137,"ELEMENT_SET_NO":999,"REV_AT_EPOCH":20913,"BSTAR":7.1817218e-5,"MEAN_MOTION_DOT":8.55e-6,"MEAN_MOTION_DDOT":0},{"OBJECT_NAME":"STARLINK-3723","OBJECT_ID":"2022-029BC","EPOCH":"2025-12-21T11:55:51.301056","MEAN_MOTION":15.08837382,"ECCENTRICITY":9.923e-5,"INCLINATION":53.2163,"RA_OF_ASC_NODE":60.139,"ARG_OF_PERICENTER":118.9288,"MEAN_ANOMALY":241.1804,"EPHEMERIS_TYPE":0,"CLASSIFICATION_TYPE":"U","NORAD_CAT_ID":52138,"ELEMENT_SET_NO":999,"REV_AT_EPOCH":20913,"BSTAR":4.9265222e-5,"MEAN_MOTION_DOT":4.96e-6,"MEAN_MOTION_DDOT":0},{"OBJECT_NAME":"STARLINK-3730","OBJECT_ID":"2022-029BD","EPOCH":"2025-12-21T05:06:29.875392","MEAN_MOTION":15.08837328,"ECCENTRICITY":0.00014568,"INCLINATION":53.2192,"RA_OF_ASC_NODE":71.416,"ARG_OF_PERICENTER":86.484,"MEAN_ANOMALY":273.6318,"EPHEMERIS_TYPE":0,"CLASSIFICATION_TYPE":"U","NORAD_CAT_ID":52139,"ELEMENT_SET_NO":999,"REV_AT_EPOCH":20894,"BSTAR":5.2036998e-5,"MEAN_MOTION_DOT":5.4e-6,"MEAN_MOTION_DDOT":0},{"OBJECT_NAME":"STARLINK-3682","OBJECT_ID":"2022-029BE","EPOCH":"2025-12-21T14:50:43.813824","MEAN_MOTION":15.08840305,"ECCENTRICITY":0.0001266,"INCLINATION":53.2175,"RA_OF_ASC_NODE":59.5959,"ARG_OF_PERICENTER":88.0016,"MEAN_ANOMALY":272.1121,"EPHEMERIS_TYPE":0,"CLASSIFICATION_TYPE":"U","NORAD_CAT_ID":52140,"ELEMENT_SET_NO":999,"REV_AT_EPOCH":20915,"BSTAR":4.9737e-5,"MEAN_MOTION_DOT":5.04e-6,"MEAN_MOTION_DDOT":0},{"OBJECT_NAME":"STARLINK-3761","OBJECT_ID":"2022-041B","EPOCH":"2025-12-21T11:34:39.178560","MEAN_MOTION":15.08842248,"ECCENTRICITY":0.00012799,"INCLINATION":53.2177,"RA_OF_ASC_NODE":100.1577,"ARG_OF_PERICENTER":85.6213,"MEAN_ANOMALY":274.4925,"EPHEMERIS_TYPE":0,"CLASSIFICATION_TYPE":"U","NORAD_CAT_ID":52262,"ELEMENT_SET_NO":999,"REV_AT_EPOCH":20255,"BSTAR":6.3974524e-5,"MEAN_MOTION_DOT":7.3e-6,"MEAN_MOTION_DDOT":0},{"OBJECT_NAME":"STARLINK-3786","OBJECT_ID":"2022-041C","EPOCH":"2025-12-21T13:15:20.611296","MEAN_MOTION":15.08840784,"ECCENTRICITY":8.85e-5,"INCLINATION":53.218,"RA_OF_ASC_NODE":99.8941,"ARG_OF_PERICENTER":96.965,"MEAN_ANOMALY":263.1443,"EPHEMERIS_TYPE":0,"CLASSIFICATION_TYPE":"U","NORAD_CAT_ID":52263,"ELEMENT_SET_NO":999,"REV_AT_EPOCH":20256,"BSTAR":6.0298671e-5,"MEAN_MOTION_DOT":6.72e-6,"MEAN_MOTION_DDOT":0},{"OBJECT_NAME":"STARLINK-3795","OBJECT_ID":"2022-041D","EPOCH":"2025-12-21T16:15:32.330592","MEAN_MOTION":15.08818399,"ECCENTRICITY":9.76e-5,"INCLINATION":53.2177,"RA_OF_ASC_NODE":99.3299,"ARG_OF_PERICENTER":99.391,"MEAN_ANOMALY":260.7192,"EPHEMERIS_TYPE":0,"CLASSIFICATION_TYPE":"U","NORAD_CAT_ID":52264,"ELEMENT_SET_NO":999,"REV_AT_EPOCH":20258,"BSTAR":0.00012803,"MEAN_MOTION_DOT":1.749e-5,"MEAN_MOTION_DDOT":0},{"OBJECT_NAME":"STARLINK-3740","OBJECT_ID":"2022-041E","EPOCH":"2025-12-21T16:10:12.190944","MEAN_MOTION":15.08850077,"ECCENTRICITY":0.0001626,"INCLINATION":53.2192,"RA_OF_ASC_NODE":99.3461,"ARG_OF_PERICENTER":83.6022,"MEAN_ANOMALY":276.5156,"EPHEMERIS_TYPE":0,"CLASSIFICATION_TYPE":"U","NORAD_CAT_ID":52265,"ELEMENT_SET_NO":999,"REV_AT_EPOCH":20258,"BSTAR":0.00013405,"MEAN_MOTION_DOT":1.847e-5,"MEAN_MOTION_DDOT":0},{"OBJECT_NAME":"STARLINK-3739","OBJECT_ID":"2022-041F","EPOCH":"2025-12-21T16:04:54.941376","MEAN_MOTION":15.08830993,"ECCENTRICITY":0.0001264,"INCLINATION":53.2181,"RA_OF_ASC_NODE":99.3636,"ARG_OF_PERICENTER":90.257,"MEAN_ANOMALY":269.8567,"EPHEMERIS_TYPE":0,"CLASSIFICATION_TYPE":"U","NORAD_CAT_ID":52266,"ELEMENT_SET_NO":999,"REV_AT_EPOCH":20258,"BSTAR":0.00014319,"MEAN_MOTION_DOT":1.991e-5,"MEAN_MOTION_DDOT":0},{"OBJECT_NAME":"STARLINK-3748","OBJECT_ID":"2022-041G","EPOCH":"2025-12-21T12:48:51.476832","MEAN_MOTION":15.08833484,"ECCENTRICITY":0.0001269,"INCLINATION":53.2186,"RA_OF_ASC_NODE":99.9805,"ARG_OF_PERICENTER":89.1619,"MEAN_ANOMALY":270.9519,"EPHEMERIS_TYPE":0,"CLASSIFICATION_TYPE":"U","NORAD_CAT_ID":52267,"ELEMENT_SET_NO":999,"REV_AT_EPOCH":20256,"BSTAR":8.1293e-5,"MEAN_MOTION_DOT":1.006e-5,"MEAN_MOTION_DDOT":0},{"OBJECT_NAME":"STARLINK-3746","OBJECT_ID":"2022-041H","EPOCH":"2025-12-21T13:57:43.389216","MEAN_MOTION":15.08837164,"ECCENTRICITY":0.0001254,"INCLINATION":53.2178,"RA_OF_ASC_NODE":99.6835,"ARG_OF_PERICENTER":89.4396,"MEAN_ANOMALY":270.674,"EPHEMERIS_TYPE":0,"CLASSIFICATION_TYPE":"U","NORAD_CAT_ID":52268,"ELEMENT_SET_NO":999,"REV_AT_EPOCH":20257,"BSTAR":5.0551e-5,"MEAN_MOTION_DOT":5.17e-6,"MEAN_MOTION_DDOT":0},{"OBJECT_NAME":"STARLINK-3791","OBJECT_ID":"2022-041J","EPOCH":"2025-12-21T12:43:33.028896","MEAN_MOTION":15.08839291,"ECCENTRICITY":0.0001114,"INCLINATION":53.2177,"RA_OF_ASC_NODE":99.9912,"ARG_OF_PERICENTER":77.415,"MEAN_ANOMALY":282.6966,"EPHEMERIS_TYPE":0,"CLASSIFICATION_TYPE":"U","NORAD_CAT_ID":52269,"ELEMENT_SET_NO":999,"REV_AT_EPOCH":20256,"BSTAR":0.00011725,"MEAN_MOTION_DOT":1.579e-5,"MEAN_MOTION_DDOT":0}]
